ORBCOMM FM24            
1 25478U 98053D   25076.87690636  .00003388  00000+0  11625-2 0  9994
2 25478  45.0090 341.9433 0001521  90.7781 269.3242 14.37727928384300
ORBCOMM FM25            
1 25479U 98053E   25076.91614497  .00003442  00000+0  11807-2 0  9994
2 25479  45.0081 340.0169 0003376 133.7670 226.3458 14.37704872384600
ORBCOMM FM26            
1 25480U 98053F   25076.86926484  .00003152  00000+0  11045-2 0  9994
2 25480  45.0076 336.0557 0005020 162.1764 197.9261 14.36825225384510
ORBCOMM FM27            
1 25481U 98053G   25076.90536573  .00003906  00000+0  13331-2 0  9993
2 25481  45.0066 340.3007 0000938  20.9158 339.1729 14.37717522384531
ORBCOMM FM28            
1 25482U 98053H   25076.60882114  .00002805  00000+0  96589-3 0  9990
2 25482  45.0046 279.3521 0004414 189.6585 170.4179 14.37950218385179
ORBCOMM FM30            
1 25980U 99065A   25076.66083973  .00002566  00000+0  90490-3 0  9998
2 25980  45.0302 162.8570 0008196 262.0266  97.9652 14.36977980321285
ORBCOMM FM31            
1 25981U 99065B   25076.90888712  .00003065  00000+0  10725-2 0  9997
2 25981  45.0214 155.2012 0005339 277.8038  82.2204 14.36943162320871
ORBCOMM FM32            
1 25982U 99065C   25076.75522196  .00002984  00000+0  10658-2 0  9996
2 25982  45.0143 171.8878 0007067 278.3207  81.6839 14.35984056321459
