<?xml version="1.0" encoding="UTF-8"?>
<ndm xmlns:xsi="http://www.w3.org/2001/XMLSchema-instance" xsi:noNamespaceSchemaLocation="https://sanaregistry.org/r/ndmxml_unqualified/ndmxml-2.0.0-master-2.0.xsd">
<omm id="CCSDS_OMM_VERS" version="2.0">
<header><CREATION_DATE/><ORIGINATOR/></header><body><segment><metadata><OBJECT_NAME>ORBCOMM FM24</OBJECT_NAME><OBJECT_ID>1998-053D</OBJECT_ID><CENTER_NAME>EARTH</CENTER_NAME><REF_FRAME>TEME</REF_FRAME><TIME_SYSTEM>UTC</TIME_SYSTEM><MEAN_ELEMENT_THEORY>SGP4</MEAN_ELEMENT_THEORY></metadata><data><meanElements><EPOCH>2025-03-17T21:02:44.709504</EPOCH><MEAN_MOTION>14.37727928</MEAN_MOTION><ECCENTRICITY>.0001521</ECCENTRICITY><INCLINATION>45.0090</INCLINATION><RA_OF_ASC_NODE>341.9433</RA_OF_ASC_NODE><ARG_OF_PERICENTER>90.7781</ARG_OF_PERICENTER><MEAN_ANOMALY>269.3242</MEAN_ANOMALY></meanElements><tleParameters><EPHEMERIS_TYPE>0</EPHEMERIS_TYPE><CLASSIFICATION_TYPE>U</CLASSIFICATION_TYPE><NORAD_CAT_ID>25478</NORAD_CAT_ID><ELEMENT_SET_NO>999</ELEMENT_SET_NO><REV_AT_EPOCH>38430</REV_AT_EPOCH><BSTAR>.11625E-2</BSTAR><MEAN_MOTION_DOT>.3388E-4</MEAN_MOTION_DOT><MEAN_MOTION_DDOT>0</MEAN_MOTION_DDOT></tleParameters></data></segment></body></omm>
<omm id="CCSDS_OMM_VERS" version="2.0">
<header><CREATION_DATE/><ORIGINATOR/></header><body><segment><metadata><OBJECT_NAME>ORBCOMM FM25</OBJECT_NAME><OBJECT_ID>1998-053E</OBJECT_ID><CENTER_NAME>EARTH</CENTER_NAME><REF_FRAME>TEME</REF_FRAME><TIME_SYSTEM>UTC</TIME_SYSTEM><MEAN_ELEMENT_THEORY>SGP4</MEAN_ELEMENT_THEORY></metadata><data><meanElements><EPOCH>2025-03-17T21:59:14.925408</EPOCH><MEAN_MOTION>14.37704872</MEAN_MOTION><ECCENTRICITY>.0003376</ECCENTRICITY><INCLINATION>45.0081</INCLINATION><RA_OF_ASC_NODE>340.0169</RA_OF_ASC_NODE><ARG_OF_PERICENTER>133.7670</ARG_OF_PERICENTER><MEAN_ANOMALY>226.3458</MEAN_ANOMALY></meanElements><tleParameters><EPHEMERIS_TYPE>0</EPHEMERIS_TYPE><CLASSIFICATION_TYPE>U</CLASSIFICATION_TYPE><NORAD_CAT_ID>25479</NORAD_CAT_ID><ELEMENT_SET_NO>999</ELEMENT_SET_NO><REV_AT_EPOCH>38460</REV_AT_EPOCH><BSTAR>.11807E-2</BSTAR><MEAN_MOTION_DOT>.3442E-4</MEAN_MOTION_DOT><MEAN_MOTION_DDOT>0</MEAN_MOTION_DDOT></tleParameters></data></segment></body></omm>
<omm id="CCSDS_OMM_VERS" version="2.0">
<header><CREATION_DATE/><ORIGINATOR/></header><body><segment><metadata><OBJECT_NAME>ORBCOMM FM26</OBJECT_NAME><OBJECT_ID>1998-053F</OBJECT_ID><CENTER_NAME>EARTH</CENTER_NAME><REF_FRAME>TEME</REF_FRAME><TIME_SYSTEM>UTC</TIME_SYSTEM><MEAN_ELEMENT_THEORY>SGP4</MEAN_ELEMENT_THEORY></metadata><data><meanElements><EPOCH>2025-03-17T20:51:44.482176</EPOCH><MEAN_MOTION>14.36825225</MEAN_MOTION><ECCENTRICITY>.000502</ECCENTRICITY><INCLINATION>45.0076</INCLINATION><RA_OF_ASC_NODE>336.0557</RA_OF_ASC_NODE><ARG_OF_PERICENTER>162.1764</ARG_OF_PERICENTER><MEAN_ANOMALY>197.9261</MEAN_ANOMALY></meanElements><tleParameters><EPHEMERIS_TYPE>0</EPHEMERIS_TYPE><CLASSIFICATION_TYPE>U</CLASSIFICATION_TYPE><NORAD_CAT_ID>25480</NORAD_CAT_ID><ELEMENT_SET_NO>999</ELEMENT_SET_NO><REV_AT_EPOCH>38451</REV_AT_EPOCH><BSTAR>.11045E-2</BSTAR><MEAN_MOTION_DOT>.3152E-4</MEAN_MOTION_DOT><MEAN_MOTION_DDOT>0</MEAN_MOTION_DDOT></tleParameters></data></segment></body></omm>
<omm id="CCSDS_OMM_VERS" version="2.0">
<header><CREATION_DATE/><ORIGINATOR/></header><body><segment><metadata><OBJECT_NAME>ORBCOMM FM27</OBJECT_NAME><OBJECT_ID>1998-053G</OBJECT_ID><CENTER_NAME>EARTH</CENTER_NAME><REF_FRAME>TEME</REF_FRAME><TIME_SYSTEM>UTC</TIME_SYSTEM><MEAN_ELEMENT_THEORY>SGP4</MEAN_ELEMENT_THEORY></metadata><data><meanElements><EPOCH>2025-03-17T21:43:43.599072</EPOCH><MEAN_MOTION>14.37717522</MEAN_MOTION><ECCENTRICITY>.0000938</ECCENTRICITY><INCLINATION>45.0066</INCLINATION><RA_OF_ASC_NODE>340.3007</RA_OF_ASC_NODE><ARG_OF_PERICENTER>20.9158</ARG_OF_PERICENTER><MEAN_ANOMALY>339.1729</MEAN_ANOMALY></meanElements><tleParameters><EPHEMERIS_TYPE>0</EPHEMERIS_TYPE><CLASSIFICATION_TYPE>U</CLASSIFICATION_TYPE><NORAD_CAT_ID>25481</NORAD_CAT_ID><ELEMENT_SET_NO>999</ELEMENT_SET_NO><REV_AT_EPOCH>38453</REV_AT_EPOCH><BSTAR>.13331E-2</BSTAR><MEAN_MOTION_DOT>.3906E-4</MEAN_MOTION_DOT><MEAN_MOTION_DDOT>0</MEAN_MOTION_DDOT></tleParameters></data></segment></body></omm>
<omm id="CCSDS_OMM_VERS" version="2.0">
<header><CREATION_DATE/><ORIGINATOR/></header><body><segment><metadata><OBJECT_NAME>ORBCOMM FM28</OBJECT_NAME><OBJECT_ID>1998-053H</OBJECT_ID><CENTER_NAME>EARTH</CENTER_NAME><REF_FRAME>TEME</REF_FRAME><TIME_SYSTEM>UTC</TIME_SYSTEM><MEAN_ELEMENT_THEORY>SGP4</MEAN_ELEMENT_THEORY></metadata><data><meanElements><EPOCH>2025-03-17T14:36:42.146496</EPOCH><MEAN_MOTION>14.37950218</MEAN_MOTION><ECCENTRICITY>.0004414</ECCENTRICITY><INCLINATION>45.0046</INCLINATION><RA_OF_ASC_NODE>279.3521</RA_OF_ASC_NODE><ARG_OF_PERICENTER>189.6585</ARG_OF_PERICENTER><MEAN_ANOMALY>170.4179</MEAN_ANOMALY></meanElements><tleParameters><EPHEMERIS_TYPE>0</EPHEMERIS_TYPE><CLASSIFICATION_TYPE>U</CLASSIFICATION_TYPE><NORAD_CAT_ID>25482</NORAD_CAT_ID><ELEMENT_SET_NO>999</ELEMENT_SET_NO><REV_AT_EPOCH>38517</REV_AT_EPOCH><BSTAR>.96589E-3</BSTAR><MEAN_MOTION_DOT>.2805E-4</MEAN_MOTION_DOT><MEAN_MOTION_DDOT>0</MEAN_MOTION_DDOT></tleParameters></data></segment></body></omm>
<omm id="CCSDS_OMM_VERS" version="2.0">
<header><CREATION_DATE/><ORIGINATOR/></header><body><segment><metadata><OBJECT_NAME>ORBCOMM FM30</OBJECT_NAME><OBJECT_ID>1999-065A</OBJECT_ID><CENTER_NAME>EARTH</CENTER_NAME><REF_FRAME>TEME</REF_FRAME><TIME_SYSTEM>UTC</TIME_SYSTEM><MEAN_ELEMENT_THEORY>SGP4</MEAN_ELEMENT_THEORY></metadata><data><meanElements><EPOCH>2025-03-17T15:51:36.552672</EPOCH><MEAN_MOTION>14.36977980</MEAN_MOTION><ECCENTRICITY>.0008196</ECCENTRICITY><INCLINATION>45.0302</INCLINATION><RA_OF_ASC_NODE>162.8570</RA_OF_ASC_NODE><ARG_OF_PERICENTER>262.0266</ARG_OF_PERICENTER><MEAN_ANOMALY>97.9652</MEAN_ANOMALY></meanElements><tleParameters><EPHEMERIS_TYPE>0</EPHEMERIS_TYPE><CLASSIFICATION_TYPE>U</CLASSIFICATION_TYPE><NORAD_CAT_ID>25980</NORAD_CAT_ID><ELEMENT_SET_NO>999</ELEMENT_SET_NO><REV_AT_EPOCH>32128</REV_AT_EPOCH><BSTAR>.9049E-3</BSTAR><MEAN_MOTION_DOT>.2566E-4</MEAN_MOTION_DOT><MEAN_MOTION_DDOT>0</MEAN_MOTION_DDOT></tleParameters></data></segment></body></omm>
<omm id="CCSDS_OMM_VERS" version="2.0">
<header><CREATION_DATE/><ORIGINATOR/></header><body><segment><metadata><OBJECT_NAME>ORBCOMM FM31</OBJECT_NAME><OBJECT_ID>1999-065B</OBJECT_ID><CENTER_NAME>EARTH</CENTER_NAME><REF_FRAME>TEME</REF_FRAME><TIME_SYSTEM>UTC</TIME_SYSTEM><MEAN_ELEMENT_THEORY>SGP4</MEAN_ELEMENT_THEORY></metadata><data><meanElements><EPOCH>2025-03-17T21:48:47.847168</EPOCH><MEAN_MOTION>14.36943162</MEAN_MOTION><ECCENTRICITY>.0005339</ECCENTRICITY><INCLINATION>45.0214</INCLINATION><RA_OF_ASC_NODE>155.2012</RA_OF_ASC_NODE><ARG_OF_PERICENTER>277.8038</ARG_OF_PERICENTER><MEAN_ANOMALY>82.2204</MEAN_ANOMALY></meanElements><tleParameters><EPHEMERIS_TYPE>0</EPHEMERIS_TYPE><CLASSIFICATION_TYPE>U</CLASSIFICATION_TYPE><NORAD_CAT_ID>25981</NORAD_CAT_ID><ELEMENT_SET_NO>999</ELEMENT_SET_NO><REV_AT_EPOCH>32087</REV_AT_EPOCH><BSTAR>.10725E-2</BSTAR><MEAN_MOTION_DOT>.3065E-4</MEAN_MOTION_DOT><MEAN_MOTION_DDOT>0</MEAN_MOTION_DDOT></tleParameters></data></segment></body></omm>
<omm id="CCSDS_OMM_VERS" version="2.0">
<header><CREATION_DATE/><ORIGINATOR/></header><body><segment><metadata><OBJECT_NAME>ORBCOMM FM32</OBJECT_NAME><OBJECT_ID>1999-065C</OBJECT_ID><CENTER_NAME>EARTH</CENTER_NAME><REF_FRAME>TEME</REF_FRAME><TIME_SYSTEM>UTC</TIME_SYSTEM><MEAN_ELEMENT_THEORY>SGP4</MEAN_ELEMENT_THEORY></metadata><data><meanElements><EPOCH>2025-03-17T18:07:31.177344</EPOCH><MEAN_MOTION>14.35984056</MEAN_MOTION><ECCENTRICITY>.0007067</ECCENTRICITY><INCLINATION>45.0143</INCLINATION><RA_OF_ASC_NODE>171.8878</RA_OF_ASC_NODE><ARG_OF_PERICENTER>278.3207</ARG_OF_PERICENTER><MEAN_ANOMALY>81.6839</MEAN_ANOMALY></meanElements><tleParameters><EPHEMERIS_TYPE>0</EPHEMERIS_TYPE><CLASSIFICATION_TYPE>U</CLASSIFICATION_TYPE><NORAD_CAT_ID>25982</NORAD_CAT_ID><ELEMENT_SET_NO>999</ELEMENT_SET_NO><REV_AT_EPOCH>32145</REV_AT_EPOCH><BSTAR>.10658E-2</BSTAR><MEAN_MOTION_DOT>.2984E-4</MEAN_MOTION_DOT><MEAN_MOTION_DDOT>0</MEAN_MOTION_DDOT></tleParameters></data></segment></body></omm>

</ndm>
